EXPRESS-AM6             
1 40277U 14064A   22299.89910653  .00000110  00000+0  00000+0 0  9990
2 40277   0.0184 297.6867 0000482 265.6767 208.5875  1.00272543 29340
SJ-11-08                
1 40286U 14066A   22300.53090621  .00000559  00000+0  12017-3 0  9992
2 40286  98.1871  59.8050 0014337  77.9148 282.3657 14.62242114426807
NAVSTAR 72 (USA 258)    
1 40294U 14068A   22299.20905747  .00000013  00000+0  00000+0 0  9998
2 40294  55.9194  82.7752 0042590  58.7077 301.6997  2.00550475 58533
MERIDIAN 7              
1 40296U 14069A   22300.26093263  .00000120  00000+0  00000+0 0  9990
2 40296  63.5469  12.8288 7154021 273.8138  15.4194  2.00625317 58561
ASNARO                  
1 40298U 14070A   22300.18524985  .00008587  00000+0  40790-3 0  9994
2 40298  97.4603  20.7873 0002248 161.4092 228.9810 15.19467160442202
HODOYOSHI-1             
1 40299U 14070B   22300.14402148  .00006444  00000+0  23595-3 0  9991
2 40299  97.2303   4.3938 0012657  36.7650  46.9545 15.28286282443160
QSAT-EOS                
1 40301U 14070D   22300.15072420  .00026870  00000+0  65248-3 0  9998
2 40301  97.1945   5.1888 0017097 357.3567  86.3914 15.40835583443740
YAOGAN 23               
1 40305U 14071A   22300.16935962  .00008486  00000+0  36208-3 0  9990
2 40305  97.6209 253.2319 0002615  73.3695  51.7173 15.23165488440598
YAOGAN 24               
1 40310U 14072A   22300.34671778  .00000724  00000+0  11162-3 0  9998
2 40310  97.9906  59.1769 0016749 207.8950 152.1364 14.76299262427693
COSMOS 2501 [GLONASS-K] 
1 40315U 14075A   22299.57964086  .00000027  00000+0  00000+0 0  9996
2 40315  63.6731 236.5800 0018763 211.4544 271.1142  2.13101360 61520
GSAT-16                 
1 40332U 14078A   22299.94702285  .00000097  00000+0  00000+0 0  9997
2 40332   0.0117 248.9676 0004495 238.2667 304.0943  1.00272701 28936
DIRECTV 14              
1 40333U 14078B   22299.49495244 -.00000112  00000+0  00000+0 0  9991
2 40333   0.0360  80.8941 0000271  65.3827 327.5533  1.00270983 28733
CBERS 4                 
1 40336U 14079A   22300.15579857  .00001442  00000+0  51680-3 0  9994
2 40336  98.4723  11.7143 0001447  81.4338 278.7096 14.35453043413303
YAOGAN-25 A             
1 40338U 14080A   22300.52159875  .00000044  00000+0  18909-3 0  9997
2 40338  63.3955 130.2291 0247489   3.6913 356.5864 13.45227671387110
YAOGAN-25 B             
1 40339U 14080B   22299.92715055 -.00000027  00000+0  89663-4 0  9995
2 40339  63.3958 131.8732 0247465   3.5309 356.7393 13.45226230387033
YAOGAN-25 C             
1 40340U 14080C   22299.92706565 -.00000007  00000+0  11784-3 0  9999
2 40340  63.3939 132.3561 0247492   4.0034 356.2896 13.45226768387018
YAMAL 401               
1 40345U 14082A   22299.46094428 -.00000216  00000+0  00000+0 0  9990
2 40345   0.0179 263.0409 0000450 136.0730 251.6337  1.00274230 28587
O3B FM10                
1 40348U 14083A   22299.28669397 -.00000011  00000+0  00000+0 0  9990
2 40348   0.0527   9.5530 0002665 205.1642 145.2740  5.00115127143368
O3B FM11                
1 40349U 14083B   22299.50002143 -.00000011  00000+0  00000+0 0  9996
2 40349   0.0569   7.2370 0002718 223.6174 129.1300  5.00115362143393
O3B FM12                
1 40350U 14083C   22299.32734904 -.00000011  00000+0  00000+0 0  9995
2 40350   0.0561   6.8206 0002822 211.0640 142.1040  5.00115214143397
O3B FM9                 
1 40351U 14083D   22299.55406350 -.00000011  00000+0  00000+0 0  9992
2 40351   0.0581   7.0126 0002646 209.7664 143.2114  5.00116113143559
COSMOS 2502             
1 40358U 14086A   22300.50474076 -.00000016  00000+0  41938-4 0  9995
2 40358  67.1551   1.3580 0006647 242.4071 117.6322 13.97494412399992
RESURS P2               
1 40360U 14087A   22300.56497767  .00006743  00000+0  18193-3 0  9995
2 40360  97.2014  22.8938 0008322 342.7528 130.6216 15.38073223438554
YAOGAN-26               
1 40362U 14088A   22300.52152786  .00006730  00000+0  28380-3 0  9998
2 40362  97.1320 343.9254 0008309   9.9912 126.0528 15.23583779436130
ASTRA 2G                
1 40364U 14089A   22300.44007992  .00000162  00000+0  00000+0 0  9998
2 40364   0.0491  30.1554 0001367  66.0664 126.2389  1.00274311 28691
FENGYUN 2G              
1 40367U 14090A   22299.82151804 -.00000285  00000+0  00000+0 0  9991
2 40367   2.2612  88.0750 0002756 203.7882 138.3832  1.00261546 28668
MUOS-3                  
1 40374U 15002A   22300.37241275 -.00000116  00000+0  00000+0 0  9991
2 40374   2.6121  17.6329 0059418 180.9205 315.8191  1.00272114 28491
SMAP                    
1 40376U 15003A   22300.46363720  .00000372  00000+0  81059-4 0  9995
2 40376  98.1296 305.3446 0001861  88.7518 271.3897 14.63351631413294
FIREBIRD 3              
1 40377U 15003B   22300.52412478  .00026544  00000+0  69429-3 0  9993
2 40377  99.0787 195.1924 0088283 297.1107  62.1146 15.34777390428640
FIREBIRD 4              
1 40378U 15003C   22300.27999784  .00024370  00000+0  63622-3 0  9990
2 40378  99.0799 195.1365 0088165 297.4231  61.8059 15.34865449428612
GRIFEX                  
1 40379U 15003D   22300.19469823  .00013943  00000+0  45854-3 0  9999
2 40379  99.0899 179.3535 0108874 345.3223  14.4856 15.26070469427700
CP10 (EXOCUBE)          
1 40380U 15003E   22300.41910236  .00010905  00000+0  39851-3 0  9990
2 40380  99.1007 171.7417 0119115  10.9320 349.4457 15.21822629427225
INMARSAT 5-F2           
1 40384U 15005A   22299.88799365 -.00000272  00000+0  00000+0 0  9999
2 40384   0.0170 255.6216 0000374 206.3871 197.8989  1.00269131 28348
COSMOS 2503             
1 40420U 15009A   22299.95626677  .00001045  00000+0  90282-4 0  9991
2 40420  97.9545 307.3906 0008720  20.1042 340.0523 14.99455258419299
ABS-3A                  
1 40424U 15010A   22299.37069185 -.00000013  00000+0  00000+0 0  9997
2 40424   0.0116 264.7902 0002181 209.0143  51.3826  1.00269748 28052
EUTELSAT 115 WEST B     
1 40425U 15010B   22299.63534514 -.00000012  00000+0  00000+0 0  9999
2 40425   0.0141  95.8935 0000132 187.6783 225.2650  1.00271766 28077
MMS 1                   
1 40482U 15011A   22299.86693682 -.00000203  00000+0  00000+0 0  9992
2 40482  30.4836  95.2111 8820111  63.8381 227.6308  0.28531546 13672
MMS 2                   
1 40483U 15011B   22297.00000000 -.00000136  00000+0  00000+0 0  9998
2 40483  30.4951  95.2885 8825991  63.6980 293.2592  0.28539213 13722
MMS 3                   
1 40484U 15011C   22299.87804793 -.00000204  00000+0  00000+0 0  9993
2 40484  30.4837  95.1759 8820559  63.8529 228.8333  0.28531368 13417
MMS 4                   
1 40485U 15011D   22299.88082571 -.00000205  00000+0  00000+0 0  9998
2 40485  30.4841  95.2181 8822820  63.8152 229.0881  0.28534761 13622
EXPRESS-AM7             
1 40505U 15012A   22300.45525316  .00000163  00000+0  00000+0 0  9999
2 40505   0.0109 252.6900 0002671 336.0006  10.9664  1.00271960 28039
NAVSTAR 73 (USA 260)    
1 40534U 15013A   22298.85483584  .00000002  00000+0  00000+0 0  9994
2 40534  53.6281 259.2909 0072610  20.4602 339.8044  2.00574061 55140
KOMPSAT-3A              
1 40536U 15014A   22300.41789176  .00003755  00000+0  22512-3 0  9993
2 40536  97.5440 241.3306 0001780 353.6067 152.6064 15.11567617418988
GSAT0203 (GALILEO 7)    
1 40544U 15017A   22297.66717320 -.00000078  00000+0  00000+0 0  9999
2 40544  56.8338  17.8458 0004235 235.4627 124.5407  1.70476292 46504
GSAT0204 (GALILEO 8)    
1 40545U 15017B   22299.09338318 -.00000076  00000+0  00000+0 0  9993
2 40545  56.8398  17.8197 0004336 222.1264 137.8878  1.70475634  9577
IRNSS-1D                
1 40547U 15018A   22299.83938559 -.00000288  00000+0  00000+0 0  9996
2 40547  28.7088 262.9392 0018876 188.3355 357.9024  1.00272720 27663
BEIDOU 17               
1 40549U 15019A   22299.52966521 -.00000159  00000+0  00000+0 0  9992
2 40549  51.6601 311.2298 0038513 199.4820 170.3426  1.00268755 27750
GONETS-M 11             
1 40552U 15020A   22299.83323640  .00000051  00000+0  29713-3 0  9997
2 40552  82.4839 139.2650 0016949  24.6302 335.5591 12.42896189343634
GONETS-M 12             
1 40553U 15020B   22299.88948701  .00000046  00000+0  26389-3 0  9994
2 40553  82.4874 139.9810 0015281   9.0815 351.0538 12.42886563343632
GONETS-M 13             
1 40554U 15020C   22299.86318645  .00000045  00000+0  25434-3 0  9990
2 40554  82.4837 139.0407 0013621 355.1286   4.9663 12.42865192343647
COSMOS 2504             
1 40555U 15020D   22299.91704120  .00000210  00000+0  75856-4 0  9992
2 40555  82.5201 177.2002 0614004 282.7333  70.5893 13.59642099369447
THOR 7                  
1 40613U 15022A   22300.39355031  .00000005  00000+0  00000+0 0  9993
2 40613   0.0180 151.7231 0002372  51.2789 333.8041  1.00274000 27488
TURKMENALEM52E/MONACOSAT
1 40617U 15023A   22300.45769477  .00000116  00000+0  00000+0 0  9991
2 40617   0.0150 134.9925 0002788  79.1100  38.5028  1.00271305 27501
DIRECTV 15              
1 40663U 15026A   22300.19109083 -.00000090  00000+0  00000+0 0  9999
2 40663   0.0101 177.1430 0000489 277.9674 266.3867  1.00268712 27216
SKY MEXICO-1            
1 40664U 15026B   22300.43162184 -.00000223  00000+0  00000+0 0  9996
2 40664   0.0202 294.2472 0002745 297.9428 240.2298  1.00271072 27214
SENTINEL-2A             
1 40697U 15028A   22300.50126441 -.00001015  00000+0 -37080-3 0  9991
2 40697  98.5649  13.3705 0001041  77.7364 282.3974 14.30806558383737
COSMOS 2506             
1 40699U 15029A   22300.38366925  .00000109  00000+0  36815-4 0  9990
2 40699  98.2441 356.3493 0007082 317.9805  42.0846 14.53528477389809
GAOFEN 8                
1 40701U 15030A   22300.20494523  .00008525  00000+0  36174-3 0  9990
2 40701  97.5791  75.9101 0001901 326.3076 133.3749 15.23352357408449
DMC3-FM1                
1 40715U 15032A   22300.24546833  .00000534  00000+0  73353-4 0  9996
2 40715  97.8266 184.3428 0007405  88.5398 271.6661 14.82245832392815
DMC3-FM2                
1 40716U 15032B   22300.26864425  .00000530  00000+0  72850-4 0  9996
2 40716  97.8310 185.0750 0009379  91.8296 268.3990 14.82238769392828
